{"type": "FeatureCollection", "features": [ {"type": "Feature", "properties": {"norad_id": 59600, "name": "GSAT0227 (GALILEO 30)", "group": "gnss", "lat": -38.769946827709326, "lon": -39.390241668837504, "alt_km": 23231.094008168835, "timestamp": "2025-12-08T17:43:05.173001+00:00", "meta": {"OBJECT_NAME": "GSAT0227 (GALILEO 30)", "OBJECT_ID": "2024-079C", "EPOCH": "2025-12-06T14:29:58.537536", "MEAN_MOTION": 1.70474646, "ECCENTRICITY": 0.00033412, "INCLINATION": 54.9931, "RA_OF_ASC_NODE": 106.4659, "ARG_OF_PERICENTER": 113.7646, "MEAN_ANOMALY": 246.2238, "EPHEMERIS_TYPE": 0, "CLASSIFICATION_TYPE": "U", "NORAD_CAT_ID": 59600, "ELEMENT_SET_NO": 999, "REV_AT_EPOCH": 1008, "BSTAR": 0, "MEAN_MOTION_DOT": 6e-08, "MEAN_MOTION_DDOT": 0}, "tle": {"line1": "1 59600U 24079C   25340.60414974  .00000006  00000+0  00000+0 0  9995", "line2": "2 59600  54.9931 106.4659 0003341 113.7646 246.2238  1.70474646 10088"}}, "geometry": {"type": "Point", "coordinates": [-39.390241668837504, -38.769946827709326]}}, {"type": "Feature", "properties": {"norad_id": 61182, "name": "GSAT0232 (GALILEO 32)", "group": "gnss", "lat": 47.71420440072298, "lon": -83.7376657234975, "alt_km": 23221.77226121008, "timestamp": "2025-12-08T17:43:05.173013+00:00", "meta": {"OBJECT_NAME": "GSAT0232 (GALILEO 32)", "OBJECT_ID": "2024-167A", "EPOCH": "2025-12-08T04:48:12.604896", "MEAN_MOTION": 1.70473279, "ECCENTRICITY": 0.00020528, "INCLINATION": 55.2426, "RA_OF_ASC_NODE": 226.5554, "ARG_OF_PERICENTER": 212.5072, "MEAN_ANOMALY": 241.5423, "EPHEMERIS_TYPE": 0, "CLASSIFICATION_TYPE": "U", "NORAD_CAT_ID": 61182, "ELEMENT_SET_NO": 999, "REV_AT_EPOCH": 762, "BSTAR": 0, "MEAN_MOTION_DOT": 1.9e-07, "MEAN_MOTION_DDOT": 0}, "tle": {"line1": "1 61182U 24167A   25342.20014589  .00000019  00000+0  00000+0 0  9991", "line2": "2 61182  55.2426 226.5554 0002052 212.5072 241.5423  1.70473279  7627"}}, "geometry": {"type": "Point", "coordinates": [-83.7376657234975, 47.71420440072298]}}, {"type": "Feature", "properties": {"norad_id": 61183, "name": "GSAT0226 (GALILEO 31)", "group": "gnss", "lat": 2.5304674723133513, "lon": 44.798680008062014, "alt_km": 23220.714521993166, "timestamp": "2025-12-08T17:43:05.173024+00:00", "meta": {"OBJECT_NAME": "GSAT0226 (GALILEO 31)", "OBJECT_ID": "2024-167B", "EPOCH": "2025-12-06T09:26:36.340224", "MEAN_MOTION": 1.70473292, "ECCENTRICITY": 7.913e-05, "INCLINATION": 55.2417, "RA_OF_ASC_NODE": 226.6105, "ARG_OF_PERICENTER": 126.2936, "MEAN_ANOMALY": 51.6212, "EPHEMERIS_TYPE": 0, "CLASSIFICATION_TYPE": "U", "NORAD_CAT_ID": 61183, "ELEMENT_SET_NO": 999, "REV_AT_EPOCH": 756, "BSTAR": 0, "MEAN_MOTION_DOT": 3.3e-07, "MEAN_MOTION_DDOT": 0}, "tle": {"line1": "1 61183U 24167B   25340.39347616  .00000033  00000+0  00000+0 0  9996", "line2": "2 61183  55.2417 226.6105 0000791 126.2936  51.6212  1.70473292  7563"}}, "geometry": {"type": "Point", "coordinates": [44.798680008062014, 2.5304674723133513]}}, {"type": "Feature", "properties": {"norad_id": 61186, "name": "BEIDOU-3 M25 (C47)", "group": "gnss", "lat": -49.101463506540526, "lon": -106.15151193709646, "alt_km": 21518.443239883025, "timestamp": "2025-12-08T17:43:05.173035+00:00", "meta": {"OBJECT_NAME": "BEIDOU-3 M25 (C47)", "OBJECT_ID": "2024-168B", "EPOCH": "2025-12-08T07:21:43.112736", "MEAN_MOTION": 1.86229841, "ECCENTRICITY": 0.00054456, "INCLINATION": 54.6459, "RA_OF_ASC_NODE": 308.8729, "ARG_OF_PERICENTER": 295.6588, "MEAN_ANOMALY": 67.0803, "EPHEMERIS_TYPE": 0, "CLASSIFICATION_TYPE": "U", "NORAD_CAT_ID": 61186, "ELEMENT_SET_NO": 999, "REV_AT_EPOCH": 823, "BSTAR": 0, "MEAN_MOTION_DOT": -7.3e-07, "MEAN_MOTION_DDOT": 0}, "tle": {"line1": "1 61186U 24168B   25342.30674899 -.00000073  00000+0  00000+0 0  9994", "line2": "2 61186  54.6459 308.8729 0005445 295.6588  67.0803  1.86229841  8233"}}, "geometry": {"type": "Point", "coordinates": [-106.15151193709646, -49.101463506540526]}}, {"type": "Feature", "properties": {"norad_id": 61187, "name": "BEIDOU-3 M27 (C49)", "group": "gnss", "lat": 48.66896964175226, "lon": 2.6059323784445705, "alt_km": 21522.788907412472, "timestamp": "2025-12-08T17:43:05.173047+00:00", "meta": {"OBJECT_NAME": "BEIDOU-3 M27 (C49)", "OBJECT_ID": "2024-168C", "EPOCH": "2025-12-08T04:47:20.536800", "MEAN_MOTION": 1.86229984, "ECCENTRICITY": 0.00023097, "INCLINATION": 54.6414, "RA_OF_ASC_NODE": 308.8603, "ARG_OF_PERICENTER": 333.3276, "MEAN_ANOMALY": 92.4757, "EPHEMERIS_TYPE": 0, "CLASSIFICATION_TYPE": "U", "NORAD_CAT_ID": 61187, "ELEMENT_SET_NO": 999, "REV_AT_EPOCH": 570, "BSTAR": 0, "MEAN_MOTION_DOT": -7.3e-07, "MEAN_MOTION_DDOT": 0}, "tle": {"line1": "1 61187U 24168C   25342.19954325 -.00000073  00000+0  00000+0 0  9997", "line2": "2 61187  54.6414 308.8603 0002309 333.3276  92.4757  1.86229984  5703"}}, "geometry": {"type": "Point", "coordinates": [2.6059323784445705, 48.66896964175226]}}, {"type": "Feature", "properties": {"norad_id": 62339, "name": "GPS BIII-7  (PRN 01)", "group": "gnss", "lat": -50.749058450225846, "lon": -138.79859119348774, "alt_km": 20188.849321039386, "timestamp": "2025-12-08T17:43:05.173061+00:00", "meta": {"OBJECT_NAME": "GPS BIII-7  (PRN 01)", "OBJECT_ID": "2024-242A", "EPOCH": "2025-12-07T21:14:38.700960", "MEAN_MOTION": 2.00567469, "ECCENTRICITY": 0.00119344, "INCLINATION": 54.9247, "RA_OF_ASC_NODE": 341.9365, "ARG_OF_PERICENTER": 343.8064, "MEAN_ANOMALY": 11.4848, "EPHEMERIS_TYPE": 0, "CLASSIFICATION_TYPE": "U", "NORAD_CAT_ID": 62339, "ELEMENT_SET_NO": 999, "REV_AT_EPOCH": 741, "BSTAR": 0, "MEAN_MOTION_DOT": -8.7e-07, "MEAN_MOTION_DDOT": 0}, "tle": {"line1": "1 62339U 24242A   25341.88517015 -.00000087  00000+0  00000+0 0  9991", "line2": "2 62339  54.9247 341.9365 0011934 343.8064  11.4848  2.00567469  7410"}}, "geometry": {"type": "Point", "coordinates": [-138.79859119348774, -50.749058450225846]}}, {"type": "Feature", "properties": {"norad_id": 62850, "name": "NVS-02 (IRNSS-1K)", "group": "gnss", "lat": -13.75036828655684, "lon": -171.27931030521054, "alt_km": 32106.81452495988, "timestamp": "2025-12-08T17:43:05.173075+00:00", "meta": {"OBJECT_NAME": "NVS-02 (IRNSS-1K)", "OBJECT_ID": "2025-020A", "EPOCH": "2025-12-07T22:51:57.679488", "MEAN_MOTION": 2.17589284, "ECCENTRICITY": 0.73477165, "INCLINATION": 20.9963, "RA_OF_ASC_NODE": 329.3929, "ARG_OF_PERICENTER": 23.1258, "MEAN_ANOMALY": 357.5725, "EPHEMERIS_TYPE": 0, "CLASSIFICATION_TYPE": "U", "NORAD_CAT_ID": 62850, "ELEMENT_SET_NO": 999, "REV_AT_EPOCH": 681, "BSTAR": 0.00025477809, "MEAN_MOTION_DOT": 1.19e-06, "MEAN_MOTION_DDOT": 0}, "tle": {"line1": "1 62850U 25020A   25341.95275092  .00000119  00000+0  25478-3 0  9993", "line2": "2 62850  20.9963 329.3929 7347716  23.1258 357.5725  2.17589284  6810"}}, "geometry": {"type": "Point", "coordinates": [-171.27931030521054, -13.75036828655684]}}, {"type": "Feature", "properties": {"norad_id": 63130, "name": "COSMOS 2584 (704K)", "group": "gnss", "lat": 64.98655322975625, "lon": 167.72737186990065, "alt_km": 19134.4393789224, "timestamp": "2025-12-08T17:43:05.173090+00:00", "meta": {"OBJECT_NAME": "COSMOS 2584 (704K)", "OBJECT_ID": "2025-042A", "EPOCH": "2025-12-08T03:39:29.178720", "MEAN_MOTION": 2.13102925, "ECCENTRICITY": 0.0007602, "INCLINATION": 64.9737, "RA_OF_ASC_NODE": 79.3022, "ARG_OF_PERICENTER": 215.9611, "MEAN_ANOMALY": 144.0025, "EPHEMERIS_TYPE": 0, "CLASSIFICATION_TYPE": "U", "NORAD_CAT_ID": 63130, "ELEMENT_SET_NO": 999, "REV_AT_EPOCH": 597, "BSTAR": 0, "MEAN_MOTION_DOT": -1.2e-07, "MEAN_MOTION_DDOT": 0}, "tle": {"line1": "1 63130U 25042A   25342.15242105 -.00000012  00000+0  00000+0 0  9994", "line2": "2 63130  64.9737  79.3022 0007602 215.9611 144.0025  2.13102925  5976"}}, "geometry": {"type": "Point", "coordinates": [167.72737186990065, 64.98655322975625]}}, {"type": "Feature", "properties": {"norad_id": 64202, "name": "GPS BIII-8  (PRN 21)", "group": "gnss", "lat": 54.08916333466067, "lon": 113.18901681186297, "alt_km": 20185.869487774034, "timestamp": "2025-12-08T17:43:05.173102+00:00", "meta": {"OBJECT_NAME": "GPS BIII-8  (PRN 21)", "OBJECT_ID": "2025-116A", "EPOCH": "2025-12-08T05:53:38.601888", "MEAN_MOTION": 2.0055836, "ECCENTRICITY": 0.00052097, "INCLINATION": 55.1026, "RA_OF_ASC_NODE": 38.8223, "ARG_OF_PERICENTER": 307.4427, "MEAN_ANOMALY": 137.7304, "EPHEMERIS_TYPE": 0, "CLASSIFICATION_TYPE": "U", "NORAD_CAT_ID": 64202, "ELEMENT_SET_NO": 999, "REV_AT_EPOCH": 404, "BSTAR": 0, "MEAN_MOTION_DOT": -7.9e-07, "MEAN_MOTION_DDOT": 0}, "tle": {"line1": "1 64202U 25116A   25342.24558567 -.00000079  00000+0  00000+0 0  9992", "line2": "2 64202  55.1026  38.8223 0005209 307.4427 137.7304  2.00558360  4046"}}, "geometry": {"type": "Point", "coordinates": [113.18901681186297, 54.08916333466067]}}, {"type": "Feature", "properties": {"norad_id": 65590, "name": "COSMOS 2596 (708K)", "group": "gnss", "lat": -24.973159545628775, "lon": 154.29739578847665, "alt_km": 19138.139845362264, "timestamp": "2025-12-08T17:43:05.173115+00:00", "meta": {"OBJECT_NAME": "COSMOS 2596 (708K)", "OBJECT_ID": "2025-206B", "EPOCH": "2025-12-08T01:45:50.514048", "MEAN_MOTION": 2.13100236, "ECCENTRICITY": 0.00139998, "INCLINATION": 64.7469, "RA_OF_ASC_NODE": 321.6359, "ARG_OF_PERICENTER": 305.2634, "MEAN_ANOMALY": 112.6949, "EPHEMERIS_TYPE": 0, "CLASSIFICATION_TYPE": "U", "NORAD_CAT_ID": 65590, "ELEMENT_SET_NO": 999, "REV_AT_EPOCH": 184, "BSTAR": 0, "MEAN_MOTION_DOT": -5.1e-07, "MEAN_MOTION_DDOT": 0}, "tle": {"line1": "1 65590U 25206B   25342.07350132 -.00000051  00000+0  00000+0 0  9992", "line2": "2 65590  64.7469 321.6359 0013999 305.2634 112.6949  2.13100236  1849"}}, "geometry": {"type": "Point", "coordinates": [154.29739578847665, -24.973159545628775]}}]}